GLOBALSTAR M024         
1 25883U 99043A   24237.52197274 -.00000021  00000+0  15540-2 0  9996
2 25883  52.0062 330.0025 0000926 347.5830 102.2494 11.10163015 81913
GLOBALSTAR M027         
1 25884U 99043B   24237.79595853 -.00000006  00000+0  21894-2 0  9993
2 25884  52.0233  38.9636 0020718 231.3966 128.4972 11.04369806108490
GLOBALSTAR M054         
1 25885U 99043C   24238.24607809 -.00000044  00000+0  69358-3 0  9990
2 25885  52.0100 214.9254 0005451  29.7484 343.3997 11.39212290 85656
GLOBALSTAR M053         
1 25886U 99043D   24238.47878977 -.00000046  00000+0  65804-3 0  9996
2 25886  51.9972 145.0578 0003521 311.3914 219.5172 11.27657933 86226
GLOBALSTAR M058         
1 25907U 99049A   24238.51380861 -.00000042  00000+0  57205-3 0  9993
2 25907  51.9926 178.6909 0002442  61.2768 298.8312 11.93180861117458
GLOBALSTAR M050         
1 25908U 99049B   24238.37817140 -.00000128  00000+0 -45175-3 0  9992
2 25908  51.9964 208.8286 0008872 161.7638   5.6002 12.07438897117181
GLOBALSTAR M033         
1 25909U 99049C   24237.91891345 -.00000095  00000+0 -31123-4 0  9993
2 25909  51.9905 102.3891 0013223  19.2768 340.8577 12.20276177499577
GLOBALSTAR M055         
1 25910U 99049D   24237.91444556 -.00000057  00000+0  31652-3 0  9996
2 25910  52.0010 127.5669 0006379 237.0410 122.9828 12.29407082131849
